BEIDOU-3 M4             
1 43108U 18003B   20033.45342648 -.00000058  00000-0  00000+0 0  9995
2 43108  55.3264  22.2379 0004780 251.4087 318.0099  1.86232636 14028
